{"type": "FeatureCollection", "features": [ {"type": "Feature", "properties": {"norad_id": 67040, "name": "STARLINK-35786", "group": "last-30-days", "lat": 38.359766500515306, "lon": -133.44174149236477, "alt_km": 352.8737879593509, "timestamp": "2025-12-25T09:48:51.008100+00:00", "meta": {"OBJECT_NAME": "STARLINK-35786", "OBJECT_ID": "2025-294L", "EPOCH": "2025-12-25T04:00:01.998720", "MEAN_MOTION": 15.71377005, "ECCENTRICITY": 0.0001263, "INCLINATION": 42.9996, "RA_OF_ASC_NODE": 106.1605, "ARG_OF_PERICENTER": 271.7289, "MEAN_ANOMALY": 271.1702, "EPHEMERIS_TYPE": 0, "CLASSIFICATION_TYPE": "U", "NORAD_CAT_ID": 67040, "ELEMENT_SET_NO": 999, "REV_AT_EPOCH": 210, "BSTAR": -0.016719, "MEAN_MOTION_DOT": -0.01943123, "MEAN_MOTION_DDOT": 0}, "tle": {"line1": "1 67040U 25294L   25359.16668980 -.01943123  00000+0 -16719-1 0  9996", "line2": "2 67040  42.9996 106.1605 0001263 271.7289 271.1702 15.71377005  2104"}}, "geometry": {"type": "Point", "coordinates": [-133.44174149236477, 38.359766500515306]}}, {"type": "Feature", "properties": {"norad_id": 67041, "name": "STARLINK-35765", "group": "last-30-days", "lat": 36.811724287785104, "lon": -128.7452988573704, "alt_km": 353.14856611257073, "timestamp": "2025-12-25T09:48:51.008110+00:00", "meta": {"OBJECT_NAME": "STARLINK-35765", "OBJECT_ID": "2025-294M", "EPOCH": "2025-12-25T04:00:01.998720", "MEAN_MOTION": 15.71366321, "ECCENTRICITY": 0.0001296, "INCLINATION": 42.9992, "RA_OF_ASC_NODE": 106.1507, "ARG_OF_PERICENTER": 271.7862, "MEAN_ANOMALY": 275.1562, "EPHEMERIS_TYPE": 0, "CLASSIFICATION_TYPE": "U", "NORAD_CAT_ID": 67041, "ELEMENT_SET_NO": 999, "REV_AT_EPOCH": 210, "BSTAR": -0.01675, "MEAN_MOTION_DOT": -0.01945501, "MEAN_MOTION_DDOT": 0}, "tle": {"line1": "1 67041U 25294M   25359.16668980 -.01945501  00000+0 -16750-1 0  9994", "line2": "2 67041  42.9992 106.1507 0001296 271.7862 275.1562 15.71366321  2102"}}, "geometry": {"type": "Point", "coordinates": [-128.7452988573704, 36.811724287785104]}}, {"type": "Feature", "properties": {"norad_id": 67042, "name": "STARLINK-35773", "group": "last-30-days", "lat": 35.9328996827853, "lon": -126.37409241845612, "alt_km": 353.31931053516564, "timestamp": "2025-12-25T09:48:51.008120+00:00", "meta": {"OBJECT_NAME": "STARLINK-35773", "OBJECT_ID": "2025-294N", "EPOCH": "2025-12-25T04:00:01.998720", "MEAN_MOTION": 15.71353219, "ECCENTRICITY": 0.0001308, "INCLINATION": 42.9995, "RA_OF_ASC_NODE": 106.1448, "ARG_OF_PERICENTER": 272.7183, "MEAN_ANOMALY": 276.3384, "EPHEMERIS_TYPE": 0, "CLASSIFICATION_TYPE": "U", "NORAD_CAT_ID": 67042, "ELEMENT_SET_NO": 999, "REV_AT_EPOCH": 230, "BSTAR": -0.016726, "MEAN_MOTION_DOT": -0.0194211, "MEAN_MOTION_DDOT": 0}, "tle": {"line1": "1 67042U 25294N   25359.16668980 -.01942110  00000+0 -16726-1 0  9991", "line2": "2 67042  42.9995 106.1448 0001308 272.7183 276.3384 15.71353219  2300"}}, "geometry": {"type": "Point", "coordinates": [-126.37409241845612, 35.9328996827853]}}, {"type": "Feature", "properties": {"norad_id": 67043, "name": "STARLINK-35901", "group": "last-30-days", "lat": 35.0146103929358, "lon": -124.07052289393827, "alt_km": 353.43343553011346, "timestamp": "2025-12-25T09:48:51.008132+00:00", "meta": {"OBJECT_NAME": "STARLINK-35901", "OBJECT_ID": "2025-294P", "EPOCH": "2025-12-25T04:00:01.998720", "MEAN_MOTION": 15.71345332, "ECCENTRICITY": 0.0001283, "INCLINATION": 42.9998, "RA_OF_ASC_NODE": 106.1403, "ARG_OF_PERICENTER": 269.4796, "MEAN_ANOMALY": 281.6757, "EPHEMERIS_TYPE": 0, "CLASSIFICATION_TYPE": "U", "NORAD_CAT_ID": 67043, "ELEMENT_SET_NO": 999, "REV_AT_EPOCH": 230, "BSTAR": -0.016769, "MEAN_MOTION_DOT": -0.01945915, "MEAN_MOTION_DDOT": 0}, "tle": {"line1": "1 67043U 25294P   25359.16668980 -.01945915  00000+0 -16769-1 0  9995", "line2": "2 67043  42.9998 106.1403 0001283 269.4796 281.6757 15.71345332  2300"}}, "geometry": {"type": "Point", "coordinates": [-124.07052289393827, 35.0146103929358]}}, {"type": "Feature", "properties": {"norad_id": 67044, "name": "STARLINK-35884", "group": "last-30-days", "lat": 34.069804899927746, "lon": -121.85823579655806, "alt_km": 353.63224544428704, "timestamp": "2025-12-25T09:48:51.008144+00:00", "meta": {"OBJECT_NAME": "STARLINK-35884", "OBJECT_ID": "2025-294Q", "EPOCH": "2025-12-25T04:00:01.998720", "MEAN_MOTION": 15.71336451, "ECCENTRICITY": 0.0001285, "INCLINATION": 42.9998, "RA_OF_ASC_NODE": 106.1344, "ARG_OF_PERICENTER": 273.8344, "MEAN_ANOMALY": 279.3817, "EPHEMERIS_TYPE": 0, "CLASSIFICATION_TYPE": "U", "NORAD_CAT_ID": 67044, "ELEMENT_SET_NO": 999, "REV_AT_EPOCH": 230, "BSTAR": -0.016753, "MEAN_MOTION_DOT": -0.01943701, "MEAN_MOTION_DDOT": 0}, "tle": {"line1": "1 67044U 25294Q   25359.16668980 -.01943701  00000+0 -16753-1 0  9990", "line2": "2 67044  42.9998 106.1344 0001285 273.8344 279.3817 15.71336451  2308"}}, "geometry": {"type": "Point", "coordinates": [-121.85823579655806, 34.069804899927746]}}, {"type": "Feature", "properties": {"norad_id": 67045, "name": "STARLINK-35891", "group": "last-30-days", "lat": 32.97544804380571, "lon": -119.46021597265528, "alt_km": 353.793732530311, "timestamp": "2025-12-25T09:48:51.008154+00:00", "meta": {"OBJECT_NAME": "STARLINK-35891", "OBJECT_ID": "2025-294R", "EPOCH": "2025-12-25T04:00:01.998720", "MEAN_MOTION": 15.71312926, "ECCENTRICITY": 0.0001276, "INCLINATION": 42.9997, "RA_OF_ASC_NODE": 106.1286, "ARG_OF_PERICENTER": 268.9212, "MEAN_ANOMALY": 286.5973, "EPHEMERIS_TYPE": 0, "CLASSIFICATION_TYPE": "U", "NORAD_CAT_ID": 67045, "ELEMENT_SET_NO": 999, "REV_AT_EPOCH": 222, "BSTAR": -0.016748, "MEAN_MOTION_DOT": -0.01941457, "MEAN_MOTION_DDOT": 0}, "tle": {"line1": "1 67045U 25294R   25359.16668980 -.01941457  00000+0 -16748-1 0  9991", "line2": "2 67045  42.9997 106.1286 0001276 268.9212 286.5973 15.71312926  2227"}}, "geometry": {"type": "Point", "coordinates": [-119.46021597265528, 32.97544804380571]}}, {"type": "Feature", "properties": {"norad_id": 67046, "name": "STARLINK-35721", "group": "last-30-days", "lat": 31.904626718242863, "lon": -117.25704108192288, "alt_km": 353.94114371542764, "timestamp": "2025-12-25T09:48:51.008163+00:00", "meta": {"OBJECT_NAME": "STARLINK-35721", "OBJECT_ID": "2025-294S", "EPOCH": "2025-12-25T04:00:01.998720", "MEAN_MOTION": 15.7130188, "ECCENTRICITY": 0.0001213, "INCLINATION": 43.0001, "RA_OF_ASC_NODE": 106.1238, "ARG_OF_PERICENTER": 268.2015, "MEAN_ANOMALY": 289.4745, "EPHEMERIS_TYPE": 0, "CLASSIFICATION_TYPE": "U", "NORAD_CAT_ID": 67046, "ELEMENT_SET_NO": 999, "REV_AT_EPOCH": 230, "BSTAR": -0.016793, "MEAN_MOTION_DOT": -0.01945142, "MEAN_MOTION_DDOT": 0}, "tle": {"line1": "1 67046U 25294S   25359.16668980 -.01945142  00000+0 -16793-1 0  9997", "line2": "2 67046  43.0001 106.1238 0001213 268.2015 289.4745 15.71301880  2303"}}, "geometry": {"type": "Point", "coordinates": [-117.25704108192288, 31.904626718242863]}}, {"type": "Feature", "properties": {"norad_id": 67047, "name": "STARLINK-35779", "group": "last-30-days", "lat": 30.72621471696194, "lon": -114.97476354120046, "alt_km": 354.2111190734695, "timestamp": "2025-12-25T09:48:51.008175+00:00", "meta": {"OBJECT_NAME": "STARLINK-35779", "OBJECT_ID": "2025-294T", "EPOCH": "2025-12-25T04:00:01.998720", "MEAN_MOTION": 15.71280051, "ECCENTRICITY": 0.0001285, "INCLINATION": 42.9996, "RA_OF_ASC_NODE": 106.1185, "ARG_OF_PERICENTER": 268.592, "MEAN_ANOMALY": 291.3835, "EPHEMERIS_TYPE": 0, "CLASSIFICATION_TYPE": "U", "NORAD_CAT_ID": 67047, "ELEMENT_SET_NO": 999, "REV_AT_EPOCH": 210, "BSTAR": -0.016811, "MEAN_MOTION_DOT": -0.01945501, "MEAN_MOTION_DDOT": 0}, "tle": {"line1": "1 67047U 25294T   25359.16668980 -.01945501  00000+0 -16811-1 0  9998", "line2": "2 67047  42.9996 106.1185 0001285 268.5920 291.3835 15.71280051  2109"}}, "geometry": {"type": "Point", "coordinates": [-114.97476354120046, 30.72621471696194]}}, {"type": "Feature", "properties": {"norad_id": 67048, "name": "STARLINK-35905", "group": "last-30-days", "lat": 29.68417429583572, "lon": -113.06182844102443, "alt_km": 354.35094102761104, "timestamp": "2025-12-25T09:48:51.008187+00:00", "meta": {"OBJECT_NAME": "STARLINK-35905", "OBJECT_ID": "2025-294U", "EPOCH": "2025-12-25T04:00:01.998720", "MEAN_MOTION": 15.71281274, "ECCENTRICITY": 0.0001226, "INCLINATION": 42.9997, "RA_OF_ASC_NODE": 106.1133, "ARG_OF_PERICENTER": 269.5124, "MEAN_ANOMALY": 292.4196, "EPHEMERIS_TYPE": 0, "CLASSIFICATION_TYPE": "U", "NORAD_CAT_ID": 67048, "ELEMENT_SET_NO": 999, "REV_AT_EPOCH": 222, "BSTAR": -0.016886, "MEAN_MOTION_DOT": -0.01953151, "MEAN_MOTION_DDOT": 0}, "tle": {"line1": "1 67048U 25294U   25359.16668980 -.01953151  00000+0 -16886-1 0  9991", "line2": "2 67048  42.9997 106.1133 0001226 269.5124 292.4196 15.71281274  2229"}}, "geometry": {"type": "Point", "coordinates": [-113.06182844102443, 29.68417429583572]}}, {"type": "Feature", "properties": {"norad_id": 67049, "name": "STARLINK-35877", "group": "last-30-days", "lat": 28.470251594995638, "lon": -110.94044320159226, "alt_km": 354.5449247270544, "timestamp": "2025-12-25T09:48:51.008197+00:00", "meta": {"OBJECT_NAME": "STARLINK-35877", "OBJECT_ID": "2025-294V", "EPOCH": "2025-12-25T04:00:01.998720", "MEAN_MOTION": 15.7125965, "ECCENTRICITY": 0.0001254, "INCLINATION": 43.0001, "RA_OF_ASC_NODE": 106.1079, "ARG_OF_PERICENTER": 266.9181, "MEAN_ANOMALY": 297.2494, "EPHEMERIS_TYPE": 0, "CLASSIFICATION_TYPE": "U", "NORAD_CAT_ID": 67049, "ELEMENT_SET_NO": 999, "REV_AT_EPOCH": 230, "BSTAR": -0.016816, "MEAN_MOTION_DOT": -0.0194449, "MEAN_MOTION_DDOT": 0}, "tle": {"line1": "1 67049U 25294V   25359.16668980 -.01944490  00000+0 -16816-1 0  9991", "line2": "2 67049  43.0001 106.1079 0001254 266.9181 297.2494 15.71259650  2308"}}, "geometry": {"type": "Point", "coordinates": [-110.94044320159226, 28.470251594995638]}}]}